NORAD_CAT_ID,OBJECT_NAME,OBJECT_TYPE,EPOCH,MEAN_MOTION,ECCENTRICITY,INCLINATION,RA_OF_ASC_NODE,ARG_OF_PERICENTER,MEAN_ANOMALY,BSTAR,MEAN_MOTION_DOT,MEAN_MOTION_DDOT,TLE_LINE0,TLE_LINE1,TLE_LINE2,SEMIMAJOR_AXIS,PERIOD,APOGEE,PERIGEE,DECAYED
53806.0,STARLINK-4768,PAYLOAD,2023-08-15 18:07:37,15.08842586,0.0001259,53.2163,135.0277,86.3269,273.7867,2.4713e-05,1.05e-06,0.0,0 STARLINK-4768,1 53806U 22111AK  23227.75529473  .00000105  00000-0  24713-4 0  9994,2 53806  53.2163 135.0277 0001259  86.3269 273.7867 15.08842586 51777,6917.872,95.437,540.608,538.867,0.0
53806.0,STARLINK-4768,PAYLOAD,2023-08-16 03:39:55,15.08851638,0.0001282,53.2167,133.2436,93.1329,266.981,9.8975e-05,1.288e-05,0.0,0 STARLINK-4768,1 53806U 22111AK  23228.15272462  .00001288  00000-0  98975-4 0  9996,2 53806  53.2167 133.2436 0001282  93.1329 266.9810 15.08851638 51834,6917.845,95.437,540.597,538.823,0.0
53806.0,STARLINK-4768,PAYLOAD,2023-08-17 03:30:43,15.08842715,0.0001883,53.2184,128.782,77.0858,283.0344,2.3876e-05,9.2e-07,0.0,0 STARLINK-4768,1 53806U 22111AK  23229.14633555  .00000092  00000-0  23876-4 0  9990,2 53806  53.2184 128.7820 0001883  77.0858 283.0344 15.08842715 51988,6917.872,95.437,541.04,538.434,0.0
53806.0,STARLINK-4768,PAYLOAD,2023-08-18 19:15:22,15.08811725,0.0001684,53.2168,121.3485,93.8839,266.2346,0.00027321,4.059e-05,0.0,0 STARLINK-4768,1 53806U 22111AK  23230.80234265  .00004059  00000-0  27321-3 0  9995,2 53806  53.2168 121.3485 0001684  93.8839 266.2346 15.08811725 52231,6917.967,95.439,540.997,538.667,0.0
53806.0,STARLINK-4768,PAYLOAD,2023-08-19 01:36:54,15.08842339,0.0001616,53.2174,120.1587,93.269,266.8487,7.6003e-05,9.22e-06,0.0,0 STARLINK-4768,1 53806U 22111AK  23231.06729598  .00000922  00000-0  76003-4 0  9999,2 53806  53.2174 120.1587 0001616  93.2690 266.8487 15.08842339 52273,6917.873,95.437,540.856,538.62,0.0
53806.0,STARLINK-4768,PAYLOAD,2023-08-19 19:06:09,15.08829204,0.0001762,53.2176,116.8882,95.3562,264.7631,4.8938e-05,4.91e-06,0.0,0 STARLINK-4768,1 53806U 22111AK  23231.79594678  .00000491  00000-0  48938-4 0  9995,2 53806  53.2176 116.8882 0001762  95.3562 264.7631 15.08829204 52384,6917.913,95.438,540.997,538.559,0.0
53806.0,STARLINK-4768,PAYLOAD,2023-08-20 03:03:05,15.08837048,0.0001537,53.2168,115.4,88.4405,271.6764,0.00011307,1.512e-05,0.0,0 STARLINK-4768,1 53806U 22111AK  23232.12714190  .00001512  00000-0  11307-3 0  9990,2 53806  53.2168 115.4000 0001537  88.4405 271.6764 15.08837048 52436,6917.889,95.438,540.818,538.691,0.0
53806.0,STARLINK-4768,PAYLOAD,2023-08-21 01:18:28,15.08849463,0.0001262,53.2166,111.2367,91.6188,268.4949,0.00018121,2.598e-05,0.0,0 STARLINK-4768,1 53806U 22111AK  23233.05449326  .00002598  00000-0  18121-3 0  9995,2 53806  53.2166 111.2367 0001262  91.6188 268.4949 15.08849463 52571,6917.851,95.437,540.589,538.843,0.0
53806.0,STARLINK-4768,PAYLOAD,2023-08-21 20:23:06,15.08838799,0.0001259,53.2163,107.6673,96.4113,263.7023,5.7688e-05,6.3e-06,0.0,0 STARLINK-4768,1 53806U 22111AK  23233.84938346  .00000630  00000-0  57688-4 0  9994,2 53806  53.2163 107.6673 0001259  96.4113 263.7023 15.08838799 52698,6917.884,95.438,540.62,538.878,0.0
53806.0,STARLINK-4768,PAYLOAD,2023-08-22 01:09:15,15.08844434,0.0001356,53.2166,106.7757,91.6876,268.4272,0.000106,1.4e-05,0.0,0 STARLINK-4768,1 53806U 22111AK  23234.04809908  .00001400  00000-0  10600-3 0  9996,2 53806  53.2166 106.7757 0001356  91.6876 268.4272 15.08844434 52720,6917.867,95.437,540.67,538.794,0.0
53806.0,STARLINK-4768,PAYLOAD,2023-08-22 23:24:39,15.08844705,0.0001371,53.2167,102.6121,90.6175,269.4974,-2.5614e-05,-6.96e-06,0.0,0 STARLINK-4768,1 53806U 22111AK  23234.97546114 -.00000696  00000-0 -25614-4 0  9995,2 53806  53.2167 102.6121 0001371  90.6175 269.4974 15.08844705 52865,6917.866,95.437,540.679,538.783,0.0
53806.0,STARLINK-4768,PAYLOAD,2023-08-24 00:50:49,15.08843974,0.0001302,53.2166,97.8543,100.598,259.5159,4.129e-05,3.69e-06,0.0,0 STARLINK-4768,1 53806U 22111AK  23236.03529868  .00000369  00000-0  41290-4 0  9994,2 53806  53.2166  97.8543 0001302 100.5980 259.5159 15.08843974 53836,6917.868,95.437,540.634,538.833,0.0
53806.0,STARLINK-4768,PAYLOAD,2023-08-24 23:06:14,15.0883267,0.000131,53.2169,93.6908,88.6011,271.5132,3.7925e-05,3.16e-06,0.0,0 STARLINK-4768,1 53806U 22111AK  23236.96266824  .00000316  00000-0  37925-4 0  9998,2 53806  53.2169  93.6908 0001310  88.6011 271.5132 15.08832670 53160,6917.903,95.438,540.674,538.862,0.0
53806.0,STARLINK-4768,PAYLOAD,2023-08-25 19:46:15,15.08838378,0.0001282,53.217,89.8249,89.0118,271.1021,3.2706e-05,2.33e-06,0.0,0 STARLINK-4768,1 53806U 22111AK  23237.82378745  .00000233  00000-0  32706-4 0  9990,2 53806  53.2170  89.8249 0001282  89.0118 271.1021 15.08838378 54107,6917.885,95.438,540.637,538.863,0.0
53806.0,STARLINK-4768,PAYLOAD,2023-08-26 00:32:24,15.08843045,0.0001282,53.217,88.933,93.7796,266.3343,6.9162e-05,8.13e-06,0.0,0 STARLINK-4768,1 53806U 22111AK  23238.02250332  .00000813  00000-0  69162-4 0  9994,2 53806  53.2170  88.9330 0001282  93.7796 266.3343 15.08843045 53325,6917.871,95.437,540.623,538.849,0.0
53806.0,STARLINK-4768,PAYLOAD,2023-08-26 18:01:39,15.08833708,0.0001316,53.2173,85.662,94.241,265.8733,5.9455e-05,6.58e-06,0.0,0 STARLINK-4768,1 53806U 22111AK  23238.75115103  .00000658  00000-0  59455-4 0  9991,2 53806  53.2173  85.6620 0001316  94.2410 265.8733 15.08833708 53435,6917.9,95.438,540.675,538.854,0.0
53806.0,STARLINK-4768,PAYLOAD,2023-08-26 21:12:25,15.08838848,0.0001357,53.2172,85.0672,90.6477,269.4671,9.7797e-05,1.269e-05,0.0,0 STARLINK-4768,1 53806U 22111AK  23238.88362744  .00001269  00000-0  97797-4 0  9990,2 53806  53.2172  85.0672 0001357  90.6477 269.4671 15.08838848 54266,6917.884,95.438,540.688,538.81,0.0
53806.0,STARLINK-4768,PAYLOAD,2023-08-27 00:23:11,15.08839715,0.000136,53.2172,84.4721,89.1233,270.9915,0.00010321,1.355e-05,0.0,0 STARLINK-4768,1 53806U 22111AK  23239.01610709  .00001355  00000-0  10321-3 0  9996,2 53806  53.2172  84.4721 0001360  89.1233 270.9915 15.08839715 53475,6917.881,95.438,540.687,538.805,0.0
53806.0,STARLINK-4768,PAYLOAD,2023-08-27 17:52:26,15.08838159,0.000135,53.2173,81.2007,90.9371,269.1775,1.3006e-05,-8.1e-07,0.0,0 STARLINK-4768,1 53806U 22111AK  23239.74475211 -.00000081  00000-0  13006-4 0  9993,2 53806  53.2173  81.2007 0001350  90.9371 269.1775 15.08838159 53587,6917.886,95.438,540.685,538.817,0.0
53806.0,STARLINK-4768,PAYLOAD,2023-08-27 21:03:12,15.08841489,0.0001344,53.2172,80.6063,85.7071,274.4074,2.8586e-05,1.67e-06,0.0,0 STARLINK-4768,1 53806U 22111AK  23239.87722990  .00000167  00000-0  28586-4 0  9999,2 53806  53.2172  80.6063 0001344  85.7071 274.4074 15.08841489 54417,6917.876,95.437,540.671,538.811,0.0
53806.0,STARLINK-4768,PAYLOAD,2023-08-28 19:18:36,15.08843151,0.0001277,53.2169,76.4421,92.6346,267.4792,2.6831e-05,1.39e-06,0.0,0 STARLINK-4768,1 53806U 22111AK  23240.80458851  .00000139  00000-0  26831-4 0  9996,2 53806  53.2169  76.4421 0001277  92.6346 267.4792 15.08843151 53743,6917.871,95.437,540.619,538.852,0.0
53806.0,STARLINK-4768,PAYLOAD,2023-08-28 20:53:59,15.08843831,0.0001295,53.2169,76.1451,89.3372,270.7768,4.5085e-05,4.3e-06,0.0,0 STARLINK-4768,1 53806U 22111AK  23240.87082759  .00000430  00000-0  45085-4 0  9999,2 53806  53.2169  76.1451 0001295  89.3372 270.7768 15.08843831 54561,6917.869,95.437,540.63,538.838,0.0
53806.0,STARLINK-4768,PAYLOAD,2023-08-29 17:34:00,15.08840718,0.0001318,53.2167,72.2818,81.1648,278.9493,4.2404e-06,-2.2e-06,0.0,0 STARLINK-4768,1 53806U 22111AK  23241.73195186 -.00000220  00000-0  42404-5 0  9995,2 53806  53.2167  72.2818 0001318  81.1648 278.9493 15.08840718 53885,6917.878,95.438,540.655,538.831,0.0
53806.0,STARLINK-4768,PAYLOAD,2023-08-29 19:09:23,15.08840935,0.0001328,53.2168,71.9843,80.4237,279.6905,7.2672e-06,-1.72e-06,0.0,0 STARLINK-4768,1 53806U 22111AK  23241.79819158 -.00000172  00000-0  72672-5 0  9999,2 53806  53.2168  71.9843 0001328  80.4237 279.6905 15.08840935 54706,6917.878,95.437,540.661,538.824,0.0
53806.0,STARLINK-4768,PAYLOAD,2023-08-30 19:00:10,15.08845696,0.0001349,53.2166,67.5232,83.6804,276.4342,7.4318e-05,8.95e-06,0.0,0 STARLINK-4768,1 53806U 22111AK  23242.79178487  .00000895  00000-0  74318-4 0  9992,2 53806  53.2166  67.5232 0001349  83.6804 276.4342 15.08845696 54850,6917.863,95.437,540.661,538.795,0.0
53806.0,STARLINK-4768,PAYLOAD,2023-08-30 22:10:56,15.0884902,0.0001312,53.2166,66.9286,81.9708,278.1433,5.1317e-05,5.29e-06,0.0,0 STARLINK-4768,1 53806U 22111AK  23242.92426319  .00000529  00000-0  51317-4 0  9995,2 53806  53.2166  66.9286 0001312  81.9708 278.1433 15.08849020 54064,6917.853,95.437,540.625,538.81,0.0
53806.0,STARLINK-4768,PAYLOAD,2023-08-31 22:01:44,15.08841437,0.0002557,53.2161,62.4757,66.5574,293.5687,3.4014e-05,2.53e-06,0.0,0 STARLINK-4768,1 53806U 22111AK  23243.91787270  .00000253  00000-0  34014-4 0  9990,2 53806  53.2161  62.4757 0002557  66.5574 293.5687 15.08841437 54218,6917.876,95.437,541.51,537.972,0.0
53806.0,STARLINK-4768,PAYLOAD,2023-09-01 12:20:18,15.08670675,0.0001261,53.2185,59.7993,293.8103,66.2757,0.0012168,0.00019041,0.0,0 STARLINK-4768,1 53806U 22111AK  23244.51409899  .00019041  00000-0  12168-2 0  9994,2 53806  53.2185  59.7993 0001261 293.8103  66.2757 15.08670675 54306,6918.398,95.448,541.135,539.391,0.0
53806.0,STARLINK-4768,PAYLOAD,2023-09-01 18:41:50,15.08689127,0.0001572,53.2186,58.6078,263.3544,96.727,0.001265,0.00019819,0.0,0 STARLINK-4768,1 53806U 22111AK  23244.77906245  .00019819  00000-0  12650-2 0  9998,2 53806  53.2186  58.6078 0001572 263.3544  96.7270 15.08689127 54349,6918.342,95.447,541.294,539.119,0.0
53806.0,STARLINK-4768,PAYLOAD,2023-09-02 02:38:41,15.08824634,0.0001774,53.2159,57.1178,66.583,293.5348,-6.7266e-05,-1.358e-05,0.0,0 STARLINK-4768,1 53806U 22111AK  23245.11020346 -.00001358  00000-0 -67266-4 0  9992,2 53806  53.2159  57.1178 0001774  66.5830 293.5348 15.08824634 54391,6917.927,95.439,541.02,538.565,0.0
